0 THOR ABLESTAR DEB
1 13512U 61015KV  13282.72775959  .00001649  00000-0  10709-2 0  1072
2 13512 065.4966 216.8705 0063661 249.5532 188.9813 14.04382549685840
0 THOR ABLESTAR DEB
1 13512U 61015KV  13283.86506608  .00002216  00000-0  14198-2 0  1089
2 13512 065.4967 213.8820 0063819 249.0129 178.9806 14.04387084686007
0 THOR ABLESTAR DEB
1 13512U 61015KV  13286.23174659  .00002164  00000-0  13878-2 0  1109
2 13512 065.4971 207.6584 0063286 248.0366 264.3793 14.04394718686333
0 THOR ABLESTAR DEB
1 13512U 61015KV  13287.78773453  .00002998  00000-0  19017-2 0  1114
2 13512 065.4974 203.5668 0063004 247.3868 211.1489 14.04402041686556
0 THOR ABLESTAR DEB
1 13512U 61015KV  13288.84813763  .00003031  00000-0  19216-2 0  1122
2 13512 065.4975 200.7784 0062844 246.9518 172.3596 14.04409532686709
0 THOR ABLESTAR DEB
1 13512U 61015KV  13289.92924847  .00003271  00000-0  20695-2 0  1138
2 13512 065.4974 197.9355 0062696 246.5185 238.2813 14.04414728686853
0 THOR ABLESTAR DEB
1 13512U 61015KV  13290.99035589  .00003113  00000-0  19721-2 0  1147
2 13512 065.4973 195.1452 0062533 246.0748 203.1094 14.04421640687001
0 THOR ABLESTAR DEB
1 13512U 61015KV  13292.19939966  .00002817  00000-0  17897-2 0  1156
2 13512 065.4969 191.9660 0062365 245.6188 195.8649 14.04429000687176
0 THOR ABLESTAR DEB
1 13512U 61015KV  13293.34223534  .00002729  00000-0  17358-2 0  1166
2 13512 065.4967 188.9608 0062211 245.1542 213.9436 14.04435517687335
0 THOR ABLESTAR DEB
1 13512U 61015KV  13294.76739610  .00002650  00000-0  16872-2 0  1174
2 13512 065.4964 185.2130 0062004 244.5498 219.4949 14.04443690687538
0 THOR ABLESTAR DEB
1 13512U 61015KV  13296.05009083  .00002962  00000-0  18789-2 0  1188
2 13512 065.4965 181.8396 0061853 243.9992 224.7871 14.04448108687710
